{
  "type": "FeatureCollection",
  "features": [
    {
      "type": "Feature",
      "properties": {
        "norad_id": 33412,
        "name": "COSMO-SKYMED 3",
        "group": "resource",
        "lat": 55.692712724808246,
        "lon": 33.88039347282063,
        "alt_km": 535.2917346962358,
        "timestamp": "2025-12-17T17:50:18.908671+00:00",
        "meta_object_name": "COSMO-SKYMED 3",
        "meta_object_id": "2008-054A",
        "meta_epoch": "2025-12-17T07:43:13.687680",
        "meta_mean_motion": 15.05398691,
        "meta_eccentricity": 0.00165345,
        "meta_inclination": 97.8474,
        "meta_ra_of_asc_node": 201.7903,
        "meta_arg_of_pericenter": 157.1215,
        "meta_mean_anomaly": 203.0751,
        "meta_ephemeris_type": 0,
        "meta_classification_type": "U",
        "meta_norad_cat_id": 33412,
        "meta_element_set_no": 999,
        "meta_rev_at_epoch": 92956,
        "meta_bstar": 0.0002198889,
        "meta_mean_motion_dot": 3.097e-05,
        "meta_mean_motion_ddot": 0,
        "tle_line1": "1 33412U 08054A   25351.32168620  .00003097  00000+0  21989-3 0  9994",
        "tle_line2": "2 33412  97.8474 201.7903 0016534 157.1215 203.0751 15.05398691929563"
      },
      "geometry": {
        "type": "Point",
        "coordinates": [
          33.88039347282063,
          55.692712724808246
        ]
      }
    },
    {
      "type": "Feature",
      "properties": {
        "norad_id": 33446,
        "name": "YAOGAN-4",
        "group": "resource",
        "lat": 55.968436443643206,
        "lon": -90.1011758136203,
        "alt_km": 618.8013258140309,
        "timestamp": "2025-12-17T17:50:18.908682+00:00",
        "meta_object_name": "YAOGAN-4",
        "meta_object_id": "2008-061A",
        "meta_epoch": "2025-12-17T07:51:55.678464",
        "meta_mean_motion": 14.82696189,
        "meta_eccentricity": 0.0013301,
        "meta_inclination": 97.9188,
        "meta_ra_of_asc_node": 281.382,
        "meta_arg_of_pericenter": 307.3083,
        "meta_mean_anomaly": 52.6917,
        "meta_ephemeris_type": 0,
        "meta_classification_type": "U",
        "meta_norad_cat_id": 33446,
        "meta_element_set_no": 999,
        "meta_rev_at_epoch": 91871,
        "meta_bstar": 0.00015900688,
        "meta_mean_motion_dot": 1.231e-05,
        "meta_mean_motion_ddot": 0,
        "tle_line1": "1 33446U 08061A   25351.32772776  .00001231  00000+0  15901-3 0  9997",
        "tle_line2": "2 33446  97.9188 281.3820 0013301 307.3083  52.6917 14.82696189918710"
      },
      "geometry": {
        "type": "Point",
        "coordinates": [
          -90.1011758136203,
          55.968436443643206
        ]
      }
    },
    {
      "type": "Feature",
      "properties": {
        "norad_id": 33492,
        "name": "GOSAT (IBUKI)",
        "group": "resource",
        "lat": -16.355504735940038,
        "lon": -82.11154649008203,
        "alt_km": 673.9130402475876,
        "timestamp": "2025-12-17T17:50:18.908693+00:00",
        "meta_object_name": "GOSAT (IBUKI)",
        "meta_object_id": "2009-002A",
        "meta_epoch": "2025-12-17T07:07:41.586240",
        "meta_mean_motion": 14.67534784,
        "meta_eccentricity": 9.644e-05,
        "meta_inclination": 98.0771,
        "meta_ra_of_asc_node": 99.837,
        "meta_arg_of_pericenter": 98.7121,
        "meta_mean_anomaly": 261.4193,
        "meta_ephemeris_type": 0,
        "meta_classification_type": "U",
        "meta_norad_cat_id": 33492,
        "meta_element_set_no": 999,
        "meta_rev_at_epoch": 90478,
        "meta_bstar": 0.00014085631,
        "meta_mean_motion_dot": 7.51e-06,
        "meta_mean_motion_ddot": 0,
        "tle_line1": "1 33492U 09002A   25351.29700910  .00000751  00000+0  14086-3 0  9990",
        "tle_line2": "2 33492  98.0771  99.8370 0000964  98.7121 261.4193 14.67534784904781"
      },
      "geometry": {
        "type": "Point",
        "coordinates": [
          -82.11154649008203,
          -16.355504735940038
        ]
      }
    },
    {
      "type": "Feature",
      "properties": {
        "norad_id": 35681,
        "name": "DEIMOS-1",
        "group": "resource",
        "lat": 46.692535259042124,
        "lon": 143.8446111678768,
        "alt_km": 639.4813456722586,
        "timestamp": "2025-12-17T17:50:18.908704+00:00",
        "meta_object_name": "DEIMOS-1",
        "meta_object_id": "2009-041A",
        "meta_epoch": "2025-12-17T07:51:22.449024",
        "meta_mean_motion": 14.74959408,
        "meta_eccentricity": 0.00026568,
        "meta_inclination": 97.7143,
        "meta_ra_of_asc_node": 151.7163,
        "meta_arg_of_pericenter": 71.7768,
        "meta_mean_anomaly": 288.3731,
        "meta_ephemeris_type": 0,
        "meta_classification_type": "U",
        "meta_norad_cat_id": 35681,
        "meta_element_set_no": 999,
        "meta_rev_at_epoch": 88007,
        "meta_bstar": 6.8972831e-05,
        "meta_mean_motion_dot": 4.16e-06,
        "meta_mean_motion_ddot": 0,
        "tle_line1": "1 35681U 09041A   25351.32734316  .00000416  00000+0  68973-4 0  9999",
        "tle_line2": "2 35681  97.7143 151.7163 0002656  71.7768 288.3731 14.74959408880071"
      },
      "geometry": {
        "type": "Point",
        "coordinates": [
          143.8446111678768,
          46.692535259042124
        ]
      }
    },
    {
      "type": "Feature",
      "properties": {
        "norad_id": 35682,
        "name": "DUBAISAT-1",
        "group": "resource",
        "lat": -23.689951732846357,
        "lon": 125.87774125913501,
        "alt_km": 646.7844011927082,
        "timestamp": "2025-12-17T17:50:18.908716+00:00",
        "meta_object_name": "DUBAISAT-1",
        "meta_object_id": "2009-041B",
        "meta_epoch": "2025-12-17T08:10:32.218752",
        "meta_mean_motion": 14.74616887,
        "meta_eccentricity": 0.00093641,
        "meta_inclination": 97.9794,
        "meta_ra_of_asc_node": 121.9527,
        "meta_arg_of_pericenter": 298.1666,
        "meta_mean_anomaly": 61.8596,
        "meta_ephemeris_type": 0,
        "meta_classification_type": "U",
        "meta_norad_cat_id": 35682,
        "meta_element_set_no": 999,
        "meta_rev_at_epoch": 87829,
        "meta_bstar": 0.00017592633,
        "meta_mean_motion_dot": 1.123e-05,
        "meta_mean_motion_ddot": 0,
        "tle_line1": "1 35682U 09041B   25351.34065068  .00001123  00000+0  17593-3 0  9990",
        "tle_line2": "2 35682  97.9794 121.9527 0009364 298.1666  61.8596 14.74616887878299"
      },
      "geometry": {
        "type": "Point",
        "coordinates": [
          125.87774125913501,
          -23.689951732846357
        ]
      }
    },
    {
      "type": "Feature",
      "properties": {
        "norad_id": 35931,
        "name": "OCEANSAT-2",
        "group": "resource",
        "lat": -63.58084545181111,
        "lon": 154.91757767556595,
        "alt_km": 912.104323905296,
        "timestamp": "2025-12-17T17:50:18.908726+00:00",
        "meta_object_name": "OCEANSAT-2",
        "meta_object_id": "2009-051A",
        "meta_epoch": "2025-12-17T06:22:42.386304",
        "meta_mean_motion": 13.99623718,
        "meta_eccentricity": 0.00160948,
        "meta_inclination": 98.2219,
        "meta_ra_of_asc_node": 351.4073,
        "meta_arg_of_pericenter": 33.2094,
        "meta_mean_anomaly": 327.008,
        "meta_ephemeris_type": 0,
        "meta_classification_type": "U",
        "meta_norad_cat_id": 35931,
        "meta_element_set_no": 999,
        "meta_rev_at_epoch": 85388,
        "meta_bstar": -6.8029983e-05,
        "meta_mean_motion_dot": -1.37e-06,
        "meta_mean_motion_ddot": 0,
        "tle_line1": "1 35931U 09051A   25351.26576836 -.00000137  00000+0 -68030-4 0  9998",
        "tle_line2": "2 35931  98.2219 351.4073 0016094  33.2094 327.0080 13.99623718853889"
      },
      "geometry": {
        "type": "Point",
        "coordinates": [
          154.91757767556595,
          -63.58084545181111
        ]
      }
    },
    {
      "type": "Feature",
      "properties": {
        "norad_id": 35946,
        "name": "WORLDVIEW-2 (WV-2)",
        "group": "resource",
        "lat": -28.21570548048664,
        "lon": 67.34956501213192,
        "alt_km": 771.6076432023183,
        "timestamp": "2025-12-17T17:50:18.908736+00:00",
        "meta_object_name": "WORLDVIEW-2 (WV-2)",
        "meta_object_id": "2009-055A",
        "meta_epoch": "2025-12-17T07:56:58.154496",
        "meta_mean_motion": 14.37725993,
        "meta_eccentricity": 0.00050393,
        "meta_inclination": 98.4785,
        "meta_ra_of_asc_node": 62.3527,
        "meta_arg_of_pericenter": 59.4731,
        "meta_mean_anomaly": 300.6953,
        "meta_ephemeris_type": 0,
        "meta_classification_type": "U",
        "meta_norad_cat_id": 35946,
        "meta_element_set_no": 999,
        "meta_rev_at_epoch": 84951,
        "meta_bstar": 6.246785e-05,
        "meta_mean_motion_dot": 1.44e-06,
        "meta_mean_motion_ddot": 0,
        "tle_line1": "1 35946U 09055A   25351.33122864  .00000144  00000+0  62468-4 0  9999",
        "tle_line2": "2 35946  98.4785  62.3527 0005039  59.4731 300.6953 14.37725993849514"
      },
      "geometry": {
        "type": "Point",
        "coordinates": [
          67.34956501213192,
          -28.21570548048664
        ]
      }
    }
  ]
}